[{"OBJECT_NAME":"STARLINK-35354","OBJECT_ID":"2025-262X","EPOCH":"2026-03-09T00:04:53.029056","MEAN_MOTION":15.27598085,"ECCENTRICITY":0.00024893,"INCLINATION":43.0041,"RA_OF_ASC_NODE":299.8515,"ARG_OF_PERICENTER":252.6156,"MEAN_ANOMALY":107.4424,"EPHEMERIS_TYPE":0,"CLASSIFICATION_TYPE":"U","NORAD_CAT_ID":66477,"ELEMENT_SET_NO":999,"REV_AT_EPOCH":1880,"BSTAR":0.0014602656,"MEAN_MOTION_DOT":0.00040164,"MEAN_MOTION_DDOT":0},{"OBJECT_NAME":"CZ-4B DEB","OBJECT_ID":"2008-053J","EPOCH":"2026-03-09T11:59:22.469568","MEAN_MOTION":15.1637526,"ECCENTRICITY":0.00601661,"INCLINATION":97.7872,"RA_OF_ASC_NODE":170.5072,"ARG_OF_PERICENTER":304.792,"MEAN_ANOMALY":54.7659,"EPHEMERIS_TYPE":0,"CLASSIFICATION_TYPE":"U","NORAD_CAT_ID":35573,"ELEMENT_SET_NO":999,"REV_AT_EPOCH":91868,"BSTAR":0.0017688276,"MEAN_MOTION_DOT":0.00036031,"MEAN_MOTION_DDOT":0}]
